COMMENT,ORIGINATOR,NORAD_CAT_ID,OBJECT_NAME,OBJECT_TYPE,CLASSIFICATION_TYPE,INTLDES,EPOCH,EPOCH_MICROSECONDS,MEAN_MOTION,ECCENTRICITY,INCLINATION,RA_OF_ASC_NODE,ARG_OF_PERICENTER,MEAN_ANOMALY,EPHEMERIS_TYPE,ELEMENT_SET_NO,REV_AT_EPOCH,BSTAR,MEAN_MOTION_DOT,MEAN_MOTION_DDOT,FILE,TLE_LINE0,TLE_LINE1,TLE_LINE2,OBJECT_ID,OBJECT_NUMBER,SEMIMAJOR_AXIS,PERIOD,APOGEE,PERIGEE,DECAYED,date
GENERATED VIA SPACETRACK.ORG API,18 SPCS,48895,SPACEBEE-108,PAYLOAD,U,21059S,2023/4/10 8:24,559680,15.27027643,0.0008294,97.5873,235.9738,156.3597,203.8024,0,999,9902,0.0013418,0.00035679,0,3885195,0 SPACEBEE-108,1 48895U 21059S   23100.35066620  .00035679  00000-0  13418-2 0  9994,2 48895  97.5873 235.9738 0008294 156.3597 203.8024 15.27027643 99027,2021-059S,48895,6862.841,94.301,490.398,479.014,0,
GENERATED VIA SPACETRACK.ORG API,18 SPCS,48895,SPACEBEE-108,PAYLOAD,U,21059S,2023/4/10 22:34,892288,15.27072876,0.0008252,97.5872,236.5733,154.6735,205.491,0,999,9911,0.0013886,0.00036983,0,3885408,0 SPACEBEE-108,1 48895U 21059S   23100.94041542  .00036983  00000-0  13886-2 0  9993,2 48895  97.5872 236.5733 0008252 154.6735 205.4910 15.27072876 99117,2021-059S,48895,6862.705,94.298,490.233,478.907,0,
GENERATED VIA SPACETRACK.ORG API,18 SPCS,48895,SPACEBEE-108,PAYLOAD,U,21059S,2023/4/11 8:00,688192,15.27097304,0.0008243,97.5871,236.973,153.555,206.6111,0,999,9917,0.0012082,0.00032171,0,3885783,0 SPACEBEE-108,1 48895U 21059S   23101.33357278  .00032171  00000-0  12082-2 0  9995,2 48895  97.5871 236.9730 0008243 153.5550 206.6111 15.27097304 99175,2021-059S,48895,6862.632,94.297,490.154,478.84,0,
GENERATED VIA SPACETRACK.ORG API,18 SPCS,48895,SPACEBEE-108,PAYLOAD,U,21059S,2023/4/11 23:43,903712,15.27146283,0.0008212,97.587,237.6391,151.0294,209.1402,0,999,9927,0.0012821,0.00034203,0,3885977,0 SPACEBEE-108,1 48895U 21059S   23101.98881833  .00034203  00000-0  12821-2 0  9994,2 48895  97.5870 237.6391 0008212 151.0294 209.1402 15.27146283 99272,2021-059S,48895,6862.485,94.294,489.986,478.715,0,
GENERATED VIA SPACETRACK.ORG API,18 SPCS,48895,SPACEBEE-108,PAYLOAD,U,21059S,2023/4/12 9:10,962976,15.27174507,0.0008219,97.587,238.0388,149.7431,210.4283,0,999,9933,0.0012141,0.00032405,0,3886349,0 SPACEBEE-108,1 48895U 21059S   23102.38195559  .00032405  00000-0  12141-2 0  9999,2 48895  97.5870 238.0388 0008219 149.7431 210.4283 15.27174507 99336,2021-059S,48895,6862.401,94.292,489.906,478.625,0,
GENERATED VIA SPACETRACK.ORG API,18 SPCS,48895,SPACEBEE-108,PAYLOAD,U,21059S,2023/4/13 8:45,910272,15.27247272,0.0008181,97.5873,239.0385,146.6566,213.5189,0,999,9948,0.0013396,0.00035858,0,3886564,0 SPACEBEE-108,1 48895U 21059S   23103.36476748  .00035858  00000-0  13396-2 0  9998,2 48895  97.5873 239.0385 0008181 146.6566 213.5189 15.27247272 99485,2021-059S,48895,6862.183,94.287,489.662,478.434,0,
GENERATED VIA SPACETRACK.ORG API,18 SPCS,48895,SPACEBEE-108,PAYLOAD,U,21059S,2023/4/14 9:54,312640,15.27329472,0.0008108,97.5868,240.1045,143.1515,217.0282,0,999,9964,0.0014666,0.0003938,0,3887333,0 SPACEBEE-108,1 48895U 21059S   23104.41304760  .00039380  00000-0  14666-2 0  9994,2 48895  97.5868 240.1045 0008108 143.1515 217.0282 15.27329472 99644,2021-059S,48895,6861.936,94.282,489.365,478.238,0,
GENERATED VIA SPACETRACK.ORG API,18 SPCS,48895,SPACEBEE-108,PAYLOAD,U,21059S,2023/4/15 7:55,26304,15.27410556,0.000799,97.5865,241.0374,140.2744,219.9081,0,999,9978,0.0016187,0.00043602,0,3887974,0 SPACEBEE-108,1 48895U 21059S   23105.33024336  .00043602  00000-0  16187-2 0  9996,2 48895  97.5865 241.0374 0007990 140.2744 219.9081 15.27410556 99783,2021-059S,48895,6861.694,94.277,489.041,478.076,0,
GENERATED VIA SPACETRACK.ORG API,18 SPCS,48895,SPACEBEE-108,PAYLOAD,U,21059S,2023/4/15 20:30,288256,15.27462794,0.0007974,97.5866,241.5704,138.4563,221.7282,0,999,9986,0.0017417,0.00047017,0,3888171,0 SPACEBEE-108,1 48895U 21059S   23105.85433204  .00047017  00000-0  17417-2 0  9992,2 48895  97.5866 241.5704 0007974 138.4563 221.7282 15.27462794 99860,2021-059S,48895,6861.537,94.274,488.873,477.931,0,
GENERATED VIA SPACETRACK.ORG API,18 SPCS,48895,SPACEBEE-108,PAYLOAD,U,21059S,2023/4/16 7:30,200576,15.27504435,0.0007973,97.5871,242.0372,136.6069,223.5798,0,999,9993,0.0016623,0.00044914,0,3888626,0 SPACEBEE-108,1 48895U 21059S   23106.31289584  .00044914  00000-0  16623-2 0  9995,2 48895  97.5871 242.0372 0007973 136.6069 223.5798 15.27504435 99932,2021-059S,48895,6861.412,94.271,488.748,477.807,0,
GENERATED VIA SPACETRACK.ORG API,18 SPCS,48895,SPACEBEE-108,PAYLOAD,U,21059S,2023/4/16 21:39,481792,15.27557894,0.0007973,97.5873,242.6371,134.389,225.8003,0,999,10002,0.0015899,0.00043014,0,3888799,0 SPACEBEE-108,1 48895U 21059S   23106.90245928  .00043014  00000-0  15899-2 0  9998,2 48895  97.5873 242.6371 0007973 134.3890 225.8003 15.27557894100020,2021-059S,48895,6861.252,94.268,488.588,477.647,0,
GENERATED VIA SPACETRACK.ORG API,18 SPCS,48895,SPACEBEE-108,PAYLOAD,U,21059S,2023/4/16 21:39,481792,15.27557894,0.0007973,97.5873,242.6371,134.389,225.8003,0,999,10002,0.0015899,0.00043014,0,3888859,0 SPACEBEE-108,1 48895U 21059S   23106.90245928  .00043014  00000-0  15899-2 0  9998,2 48895  97.5873 242.6371 0007973 134.3890 225.8003 15.27557894100020,2021-059S,48895,6861.252,94.268,488.588,477.647,0,
GENERATED VIA SPACETRACK.ORG API,18 SPCS,48895,SPACEBEE-108,PAYLOAD,U,21059S,2023/4/17 8:39,927392,15.27599732,0.0007941,97.5875,243.1035,132.9779,227.2127,0,999,10009,0.0016624,0.00045047,0,3889215,0 SPACEBEE-108,1 48895U 21059S   23107.36099453  .00045047  00000-0  16624-2 0  9994,2 48895  97.5875 243.1035 0007941 132.9779 227.2127 15.27599732100097,2021-059S,48895,6861.127,94.266,488.44,477.544,0,
GENERATED VIA SPACETRACK.ORG API,18 SPCS,48895,SPACEBEE-108,PAYLOAD,U,21059S,2023/4/17 21:14,721952,15.27646528,0.0007899,97.5875,243.6365,131.5978,228.5938,0,999,10017,0.0016502,0.00044778,0,3889391,0 SPACEBEE-108,1 48895U 21059S   23107.88501993  .00044778  00000-0  16502-2 0  9993,2 48895  97.5875 243.6365 0007899 131.5978 228.5938 15.27646528100175,2021-059S,48895,6860.987,94.263,488.271,477.432,0,
GENERATED VIA SPACETRACK.ORG API,18 SPCS,48895,SPACEBEE-108,PAYLOAD,U,21059S,2023/4/17 22:48,116352,15.27651243,0.0007916,97.5876,243.7032,131.2254,228.9668,0,999,10018,0.0016294,0.00044216,0,3889439,0 SPACEBEE-108,1 48895U 21059S   23107.95052218  .00044216  00000-0  16294-2 0  9997,2 48895  97.5876 243.7032 0007916 131.2254 228.9668 15.27651243100187,2021-059S,48895,6860.973,94.262,488.269,477.407,0,
GENERATED VIA SPACETRACK.ORG API,18 SPCS,48895,SPACEBEE-108,PAYLOAD,U,21059S,2023/4/18 8:14,29152,15.27681381,0.0007868,97.5877,244.1031,129.9269,230.2662,0,999,10024,0.0015219,0.00041315,0,3889684,0 SPACEBEE-108,1 48895U 21059S   23108.34353043  .00041315  00000-0  15219-2 0  9994,2 48895  97.5877 244.1031 0007868 129.9269 230.2662 15.27681381100241,2021-059S,48895,6860.883,94.26,488.146,477.349,0,
GENERATED VIA SPACETRACK.ORG API,18 SPCS,48895,SPACEBEE-108,PAYLOAD,U,21059S,2023/4/18 19:14,307328,15.2772405,0.0007818,97.5878,244.5695,128.3469,231.8473,0,999,10031,0.0017157,0.00046679,0,3889987,0 SPACEBEE-108,1 48895U 21059S   23108.80202902  .00046679  00000-0  17157-2 0  9993,2 48895  97.5878 244.5695 0007818 128.3469 231.8473 15.27724050100318,2021-059S,48895,6860.755,94.258,487.984,477.256,0,
GENERATED VIA SPACETRACK.ORG API,18 SPCS,48895,SPACEBEE-108,PAYLOAD,U,21059S,2023/4/19 7:49,537024,15.27767997,0.0007793,97.588,245.1027,126.703,233.4925,0,999,10039,0.0017071,0.00046505,0,3890383,0 SPACEBEE-108,1 48895U 21059S   23109.32601316  .00046505  00000-0  17071-2 0  9996,2 48895  97.5880 245.1027 0007793 126.7030 233.4925 15.27767997100390,2021-059S,48895,6860.623,94.255,487.835,477.142,0,
GENERATED VIA SPACETRACK.ORG API,18 SPCS,48895,SPACEBEE-108,PAYLOAD,U,21059S,2023/4/20 8:58,861312,15.27853892,0.0007775,97.5887,246.1694,123.2271,236.9714,0,999,10055,0.0013702,0.00037364,0,3890827,0 SPACEBEE-108,1 48895U 21059S   23110.37393358  .00037364  00000-0  13702-2 0  9997,2 48895  97.5887 246.1694 0007775 123.2271 236.9714 15.27853892100559,2021-059S,48895,6860.366,94.25,487.565,476.897,0,
GENERATED VIA SPACETRACK.ORG API,18 SPCS,48895,SPACEBEE-108,PAYLOAD,U,21059S,2023/4/20 15:15,180768,15.27872398,0.0007789,97.5889,246.4361,122.0074,238.1923,0,999,10059,0.0012835,0.00035004,0,3891109,0 SPACEBEE-108,1 48895U 21059S   23110.63590487  .00035004  00000-0  12835-2 0  9993,2 48895  97.5889 246.4361 0007789 122.0074 238.1923 15.27872398100590,2021-059S,48895,6860.311,94.249,487.519,476.832,0,
GENERATED VIA SPACETRACK.ORG API,18 SPCS,48895,SPACEBEE-108,PAYLOAD,U,21059S,2023/4/20 15:15,180768,15.27872398,0.0007789,97.5889,246.4361,122.0074,238.1923,0,999,10059,0.0012835,0.00035004,0,3892028,0 SPACEBEE-108,1 48895U 21059S   23110.63590487  .00035004  00000-0  12835-2 0  9993,2 48895  97.5889 246.4361 0007789 122.0074 238.1923 15.27872398100590,2021-059S,48895,6860.311,94.249,487.519,476.832,0,
GENERATED VIA SPACETRACK.ORG API,18 SPCS,48895,SPACEBEE-108,PAYLOAD,U,21059S,2023/4/21 3:50,936672,15.27911083,0.0007728,97.5891,246.9693,120.5085,239.6918,0,999,10067,0.0013102,0.00035779,0,3891529,0 SPACEBEE-108,1 48895U 21059S   23111.15983723  .00035779  00000-0  13102-2 0  9997,2 48895  97.5891 246.9693 0007728 120.5085 239.6918 15.27911083100678,2021-059S,48895,6860.195,94.246,487.361,476.758,0,
GENERATED VIA SPACETRACK.ORG API,18 SPCS,48895,SPACEBEE-108,PAYLOAD,U,21059S,2023/4/21 8:33,104512,15.2792361,0.0007709,97.5891,247.1695,119.4419,240.759,0,999,10070,0.001235,0.00033724,0,3891716,0 SPACEBEE-108,1 48895U 21059S   23111.35630908  .00033724  00000-0  12350-2 0  9995,2 48895  97.5891 247.1695 0007709 119.4419 240.7590 15.27923610100702,2021-059S,48895,6860.157,94.246,487.311,476.734,0,
